country,national_park_name,park_url,lat_dms,long_dms,lat_dec,long_dms
Angola,Maiombe National Park,https://en.wikipedia.org/w/index.php?title=Maiombe_National_Park&action=edit&redlink=1,,,,
Ascension Island,Average relative humidity,https://en.wikipedia.org/wiki/Relative_humidity,,,,
Ascension Island,Mean monthly sunshine hours,https://en.wikipedia.org/wiki/Sunshine_duration,,,,
Cameroon,Kimbi-Fungom National Park,https://en.wikipedia.org/w/index.php?title=Kimbi-Fungom_National_Park&action=edit&redlink=1,,,,
Cameroon,Mozogo-Gokoro National Park,https://en.wikipedia.org/w/index.php?title=Mozogo-Gokoro_National_Park&action=edit&redlink=1,,,,
Cameroon,Tchabal Mbabo National Park,https://en.wikipedia.org/w/index.php?title=Tchabal_Mbabo_National_Park&action=edit&redlink=1,,,,
Comoros,Mitsamiouli Ndroude National Park,https://en.wikipedia.org/w/index.php?title=Mitsamiouli_Ndroude_National_Park&action=edit&redlink=1,,,,
Djibouti,Djibouti National Park,https://en.wikipedia.org/wiki/Djibouti_National_Park,,,,
Djibouti,Yoboki National Park,https://en.wikipedia.org/wiki/Yoboki_National_Park,,,,
Egypt,Ministry of Environment Egyptian Environmental Affairs Agency,https://en.wikipedia.orghttp://www.eeaa.gov.eg/en-us/topics/nature/protectorates/protectoratesdescription.aspx,,,,
Egypt,http://www.eeaa.gov.eg/Portals/0/eeaaReports/N-protect/Protectorates2013_A3En_Ar_Existing_Future.pdf,https://en.wikipedia.orghttp://www.eeaa.gov.eg/Portals/0/eeaaReports/N-protect/Protectorates2013_A3En_Ar_Existing_Future.pdf,,,,
Eritrea,Dahlak Marine National Park,https://en.wikipedia.org/wiki/Dahlak_Marine_National_Park,,,,
Ethiopia,Bejimiz National Park,https://en.wikipedia.org/w/index.php?title=Bejimiz_National_Park&action=edit&redlink=1,,,,
Ethiopia,Dati Wolel National Park,https://en.wikipedia.org/w/index.php?title=Dati_Wolel_National_Park&action=edit&redlink=1,,,,
Ethiopia,Gibe Sheleko National Park,https://en.wikipedia.org/w/index.php?title=Gibe_Sheleko_National_Park&action=edit&redlink=1,,,,
Ethiopia,Loka-Abaya National Park,https://en.wikipedia.org/w/index.php?title=Loka-Abaya_National_Park&action=edit&redlink=1,,,,
Ethiopia,Mao-Komo National Park,https://en.wikipedia.org/w/index.php?title=Mao-Komo_National_Park&action=edit&redlink=1,,,,
Guinea-Bissau,Boé National Park,https://en.wikipedia.org/w/index.php?title=Bo%C3%A9_National_Park&action=edit&redlink=1,,,,
Guinea-Bissau,Dulombi National Park,https://en.wikipedia.org/w/index.php?title=Dulombi_National_Park&action=edit&redlink=1,,,,
Guinea-Bissau,Varela National Park,https://en.wikipedia.org/w/index.php?title=Varela_National_Park&action=edit&redlink=1,,,,
Liberia,Gola National Forest,https://en.wikipedia.org/wiki/Gola_National_Forest,,,,
Libya,Rajma National Park,https://en.wikipedia.org/wiki/Rajma_National_Park,,,,
Madagascar,Nosy Tanikely National Park,https://en.wikipedia.org/w/index.php?title=Nosy_Tanikely_National_Park&action=edit&redlink=1,,,,
Mauritius,Islets National Park,https://en.wikipedia.org/wiki/Islets_National_Park,,,,
Morocco,Dakhla National Park,https://en.wikipedia.org/w/index.php?title=Dakhla_National_Park&action=edit&redlink=1,,,,
Niger,4 Total Faunal Reserves,https://en.wikipedia.org/wiki/World_Commission_on_Protected_Areas,,,,
Niger,1 Partial Faunal Reserve,,,,,
Niger,1 Faunal Reserve Buffer Zone,,,,,
Niger,1 National Nature Reserve,,,,,
Niger,1 Strict Nature Reserve,https://en.wikipedia.org/wiki/Nature_Reserve,,,,
Niger,1 National Park,https://en.wikipedia.org/wiki/National_Park,,,,
Rwanda,Wildlife of Rwanda,https://en.wikipedia.org/wiki/Wildlife_of_Rwanda,,,,
Seychelles,Ile Du Sud,https://en.wikipedia.org/w/index.php?title=Ile_Du_Sud_-_Poivre_Atoll_National_Park&action=edit&redlink=1,,,,
Sierra Leone,Kuru Hills,https://en.wikipedia.org/w/index.php?title=Kuru_Hills_National_Park&action=edit&redlink=1,,,,
Sierra Leone,Lake Mape/Mabesi,https://en.wikipedia.org/w/index.php?title=Lake_Mape/Mabesi_National_Park&action=edit&redlink=1,,,,
Sierra Leone,Lake Sonfon,https://en.wikipedia.org/w/index.php?title=Lake_Sonfon_National_Park&action=edit&redlink=1,,,,
Sierra Leone,Loma Mountains,https://en.wikipedia.org/w/index.php?title=Loma_Mountains_National_Park&action=edit&redlink=1,,,,
Somalia,Arbawerow National Park,https://en.wikipedia.org/w/index.php?title=Arbawerow_National_Park&action=edit&redlink=1,,,,
Somalia,Baraako madow National Park,https://en.wikipedia.org/w/index.php?title=Baraako_madow_National_Park&action=edit&redlink=1,,,,
Somalia,Buloburto National Park,https://en.wikipedia.org/w/index.php?title=Buloburto_National_Park&action=edit&redlink=1,,,,
Somalia,Hobyo National Park,https://en.wikipedia.org/wiki/Hobyo_National_Park,,,,
Somalia,las'anod National Park,https://en.wikipedia.org/w/index.php?title=Las%27anod_National_Park&action=edit&redlink=1,,,,
Somalia,Shoonto National Park,https://en.wikipedia.org/w/index.php?title=Shoonto_National_Park&action=edit&redlink=1,,,,
Somalia,Taleh-El Chebet National Park,https://en.wikipedia.org/w/index.php?title=Taleh-El_Chebet_National_Park&action=edit&redlink=1,,,,
Somalia,Zayla National Park,https://en.wikipedia.org/w/index.php?title=Zayla_National_Park&action=edit&redlink=1,,,,
Sudan,Jebel Hassania National Park,https://en.wikipedia.org/w/index.php?title=Jebel_Hassania_National_Park&action=edit&redlink=1,,,,
Tunisia,Dghoumes National Park,https://en.wikipedia.org/w/index.php?title=Dghoumes_National_Park&action=edit&redlink=1,,,,
Tunisia,Jebel Mghilla National Park,https://en.wikipedia.org/w/index.php?title=Jebel_Mghilla_National_Park&action=edit&redlink=1,,,,
Tunisia,Jebel Orbata National Park,https://en.wikipedia.org/w/index.php?title=Jebel_Orbata_National_Park&action=edit&redlink=1,,,,
Tunisia,Jebel Zaghdoud National Park,https://en.wikipedia.org/w/index.php?title=Jebel_Zaghdoud_National_Park&action=edit&redlink=1,,,,
Tunisia,Jebel Zaghouan National Park,https://en.wikipedia.org/w/index.php?title=Jebel_Zaghouan_National_Park&action=edit&redlink=1,,,,
Tunisia,Oued Zeen National Park,https://en.wikipedia.org/wiki/Oued_Zeen_National_Park,,,,
Tunisia,Sanghr Jabbess National Park,https://en.wikipedia.org/w/index.php?title=Sanghr_Jabbess_National_Park&action=edit&redlink=1,,,,
Uganda,Entebbe,https://en.wikipedia.org/wiki/Entebbe_Wildlife_Sanctuary,,,,
Uganda,Otze Forest,https://en.wikipedia.org/wiki/Otze_Forest_Wildlife_Sanctuary,,,,
Zimbabwe,Chimanimani National Park,https://en.wikipedia.org/wiki/Chimanimani_National_Park,,,,
Afghanistan,Nuristan National Park and Wildlife Reserve,https://en.wikipedia.org/w/index.php?title=Nuristan_National_Park_and_Wildlife_Reserve&action=edit&redlink=1,,,,
Brunei,Ulu Ulu National Park Resort,https://en.wikipedia.org/w/index.php?title=Ulu_Ulu_National_Park_Resort&action=edit&redlink=1,,,,
Cambodia,Hun Sen Russei Trep National Park,https://en.wikipedia.org/w/index.php?title=Hun_Sen_Russei_Trep_National_Park&action=edit&redlink=1,,,,
Cambodia,Koh Rong National Park,https://en.wikipedia.org/w/index.php?title=Koh_Rong_National_Park&action=edit&redlink=1,,,,
Cambodia,O'Yadav National Park,https://en.wikipedia.org/w/index.php?title=O%27Yadav_National_Park&action=edit&redlink=1,,,,
Cambodia,Veun Sai-Siem Pang National Park,https://en.wikipedia.org/w/index.php?title=Veun_Sai-Siem_Pang_National_Park&action=edit&redlink=1,,,,
People's Republic of China,Northeastern China Tiger and Leopard National Park,https://en.wikipedia.org/w/index.php?title=Northeastern_China_Tiger_and_Leopard_National_Park&action=edit&redlink=1,,,,
People's Republic of China,Giant Panda National Park,https://en.wikipedia.org/wiki/Giant_Panda_National_Park,,,,
People's Republic of China,Hunan South Mountain National Park,https://en.wikipedia.org/w/index.php?title=Hunan_South_Mountain_National_Park&action=edit&redlink=1,,,,
India,Dehing Patkai National Park,https://en.wikipedia.org/wiki/Dehing_Patkai_National_Park,,,,
India,Salim Ali National Park,https://en.wikipedia.org/wiki/Salim_Ali_National_Park,,,,
India,Anamudi Shola National Park,https://en.wikipedia.org/wiki/Anamudi_Shola_National_Park,,,,
Indonesia,Zamrud,https://en.wikipedia.org/w/index.php?title=Zamrud_National_Park&action=edit&redlink=1,,,,
Indonesia,Mount Maras,https://en.wikipedia.org/w/index.php?title=Mount_Maras_National_Park&action=edit&redlink=1,,,,
Iran,Bamu National Park,https://en.wikipedia.org/w/index.php?title=Bamu_National_Park&action=edit&redlink=1,,,,
Iran,Bojagh National Park,https://en.wikipedia.org/w/index.php?title=Bojagh_National_Park&action=edit&redlink=1,,,,
Iran,Dayer-Nakhiloo National Park,https://en.wikipedia.org/w/index.php?title=Dayer-Nakhiloo_National_Park&action=edit&redlink=1,,,,
Iran,Ghamishloo National Park,https://en.wikipedia.org/w/index.php?title=Ghamishloo_National_Park&action=edit&redlink=1,,,,
Iran,Ghatroyeh National Park,https://en.wikipedia.org/w/index.php?title=Ghatroyeh_National_Park&action=edit&redlink=1,,,,
Iran,Kiasar National Park,https://en.wikipedia.org/w/index.php?title=Kiasar_National_Park&action=edit&redlink=1,,,,
Iran,Kolahghazi National Park,https://en.wikipedia.org/w/index.php?title=Kolahghazi_National_Park&action=edit&redlink=1,,,,
Iran,Lake Urmia National Park,https://en.wikipedia.org/w/index.php?title=Lake_Urmia_National_Park&action=edit&redlink=1,,,,
Iran,Paband National Park,https://en.wikipedia.org/w/index.php?title=Paband_National_Park&action=edit&redlink=1,,,,
Iran,Salouk National Park,https://en.wikipedia.org/w/index.php?title=Salouk_National_Park&action=edit&redlink=1,,,,
Iran,Sarigol National Park,https://en.wikipedia.org/w/index.php?title=Sarigol_National_Park&action=edit&redlink=1,,,,
Iran,Siyahkooh National Park,https://en.wikipedia.org/w/index.php?title=Siyahkooh_National_Park&action=edit&redlink=1,,,,
Iran,Tang-e Sayad National Park,https://en.wikipedia.org/w/index.php?title=Tang-e_Sayad_National_Park&action=edit&redlink=1,,,,
Israel,Caesarea National Park,https://en.wikipedia.org/w/index.php?title=Caesarea_National_Park&action=edit&redlink=1,,,,
Israel,Ben-Gurion's Tomb National Park,https://en.wikipedia.org/w/index.php?title=Ben-Gurion%27s_Tomb_National_Park&action=edit&redlink=1,,,,
Israel,Nahal Zalmon,https://en.wikipedia.org/w/index.php?title=Nahal_Zalmon&action=edit&redlink=1,,,,
Jordan,Burqu Nature Reserve,https://en.wikipedia.org/wiki/Burqu_Nature_Reserve,,,,
Jordan,Dahek Nature Reserve,https://en.wikipedia.org/w/index.php?title=Dahek_Nature_Reserve&action=edit&redlink=1,,,,
Jordan,Dmeitha Nature Reserve,https://en.wikipedia.org/w/index.php?title=Dmeitha_Nature_Reserve&action=edit&redlink=1,,,,
Jordan,Fifa Nature Reserve,https://en.wikipedia.org/wiki/Fifa_Nature_Reserve,,,,
Jordan,Qatar Nature Reserve,https://en.wikipedia.org/w/index.php?title=Qatar_Nature_Reserve&action=edit&redlink=1,,,,
Lebanon,Benta'ael,https://en.wikipedia.org/w/index.php?title=Benta%27ael&action=edit&redlink=1,,,,
Lebanon,Qammoua protected area,https://en.wikipedia.org/w/index.php?title=Qammoua&action=edit&redlink=1,,,,
Lebanon,Wadi Jhannam,https://en.wikipedia.org/w/index.php?title=Wadi_Jhannam&action=edit&redlink=1,,,,
Maldives,Angafaru,https://en.wikipedia.org/wiki/Angafaru,,,,
Maldives,South Ari Atoll MPA,https://en.wikipedia.org/wiki/South_Ari_Atoll_MPA,,,,
Maldives,Huraa Mangrove Area,https://en.wikipedia.org/w/index.php?title=Huraa_Mangrove_Area&action=edit&redlink=1,,,,
Maldives,Eidhigali Kilhi and Koattey Area,https://en.wikipedia.org/w/index.php?title=Eidhigali_Kilhi_and_Koattey_Area&action=edit&redlink=1,,,,
Maldives,Fushee Kandu,https://en.wikipedia.org/w/index.php?title=Fushee_Kandu&action=edit&redlink=1,,,,
Maldives,Filitheyo Kandu,https://en.wikipedia.org/w/index.php?title=Filitheyo_Kandu&action=edit&redlink=1,,,,
Maldives,Lhazikuraadi,https://en.wikipedia.org/w/index.php?title=Lhazikuraadi&action=edit&redlink=1,,,,
Maldives,Vattaru Kandu,https://en.wikipedia.org/w/index.php?title=Vattaru_Kandu&action=edit&redlink=1,,,,
Maldives,Faruhuruvalhibeyru,https://en.wikipedia.org/w/index.php?title=Faruhuruvalhibeyru&action=edit&redlink=1,,,,
Maldives,Kashibeyru Thila,https://en.wikipedia.org/w/index.php?title=Kashibeyru_Thila&action=edit&redlink=1,,,,
Maldives,Lankan Thila,https://en.wikipedia.org/w/index.php?title=Lankan_Thila&action=edit&redlink=1,,,,
Maldives,Kuredhu Kanduolhi,https://en.wikipedia.org/w/index.php?title=Kuredhu_Kanduolhi&action=edit&redlink=1,,,,
Maldives,Dhigali Haa,https://en.wikipedia.org/w/index.php?title=Dhigali_Haa&action=edit&redlink=1,,,,
Maldives,Vilingili Thila,https://en.wikipedia.org/w/index.php?title=Vilingili_Thila&action=edit&redlink=1,,,,
Maldives,Fushivaru Thila,https://en.wikipedia.org/w/index.php?title=Fushivaru_Thila&action=edit&redlink=1,,,,
Maldives,Miyaru Kandu,https://en.wikipedia.org/w/index.php?title=Miyaru_Kandu&action=edit&redlink=1,,,,
Maldives,Kudarah Thila,https://en.wikipedia.org/w/index.php?title=Kudarah_Thila&action=edit&redlink=1,,,,
Maldives,Mushimasmigili Thila,https://en.wikipedia.org/w/index.php?title=Mushimasmigili_Thila&action=edit&redlink=1,,,,
Maldives,Orimas Thila,https://en.wikipedia.org/w/index.php?title=Orimas_Thila&action=edit&redlink=1,,,,
Maldives,Mayaa Thila,https://en.wikipedia.org/w/index.php?title=Mayaa_Thila&action=edit&redlink=1,,,,
Maldives,Guraidhoo Kanduolhi,https://en.wikipedia.org/w/index.php?title=Guraidhoo_Kanduolhi&action=edit&redlink=1,,,,
Maldives,Emboodhoo Kanduolhi,https://en.wikipedia.org/w/index.php?title=Emboodhoo_Kanduolhi&action=edit&redlink=1,,,,
Maldives,Gulhifalhu Medhuga onna kohlavaanee,https://en.wikipedia.org/w/index.php?title=Gulhifalhu_Medhuga_onna_kohlavaanee&action=edit&redlink=1,,,,
Maldives,Dhekunu Thilafalhuge Miyaruvani,https://en.wikipedia.org/w/index.php?title=Dhekunu_Thilafalhuge_Miyaruvani&action=edit&redlink=1,,,,
Maldives,Kuda Haa,https://en.wikipedia.org/w/index.php?title=Kuda_Haa&action=edit&redlink=1,,,,
Maldives,Gaathugiri,https://en.wikipedia.org/w/index.php?title=Gaathugiri&action=edit&redlink=1,,,,
Maldives,Thamburudhoo Thila,https://en.wikipedia.org/w/index.php?title=Thamburudhoo_Thila&action=edit&redlink=1,,,,
Maldives,Makunudhoo Kandu Olhi,https://en.wikipedia.org/w/index.php?title=Makunudhoo_Kandu_Olhi&action=edit&redlink=1,,,,
Maldives,Rasfari island,"https://en.wikipedia.org/w/index.php?title=Rasfari_island,_lagoon_and_the_surrounding_reef&action=edit&redlink=1",,,,
Malaysia,Bruit National Park,,,,,
Malaysia,Limbang Mangrove National Park,,,,,
Malaysia,Pelagus National Park,,,,,
Malaysia,Sedilu National Park,,,,,
Malaysia,Sungai Meluang National Park,,,,,
Malaysia,Ulu Sebuyau National Park,,,,,
Malaysia,Department of Wildlife and National Parks,https://en.wikipedia.org/wiki/Department_of_Wildlife_and_National_Parks,,,,
Malaysia,Department of Wildlife and National Parks of Malaysia,https://en.wikipedia.orghttp://www.wildlife.gov.my,,,,
Malaysia,Johor National Parks Corporation Website,https://en.wikipedia.orghttps://web.archive.org/web/20081006183249/http://johorparks.com.my/,,,,
Malaysia,Travel Ideas for,https://en.wikipedia.orghttps://web.archive.org/web/20140128101322/http://www.virtualmalaysia.com/tag/national-parks/,,,,
Myanmar,Bwe Par Taung National Park,https://en.wikipedia.org/w/index.php?title=Bwe_Par_Taung_National_Park&action=edit&redlink=1,,,,
Myanmar,Inkhain Bum National Park,https://en.wikipedia.org/w/index.php?title=Inkhain_Bum_National_Park&action=edit&redlink=1,,,,
Pakistan,Pabbi National Park,https://en.wikipedia.org/w/index.php?title=Pabbi_National_Park&action=edit&redlink=1,,,,
Qatar,Al Shahaniyah Park,https://en.wikipedia.org/w/index.php?title=Al_Shahaniyah_Park&action=edit&redlink=1,,,,
Qatar,Al Thakira Nature Reserve,https://en.wikipedia.org/w/index.php?title=Al_Thakira_Nature_Reserve&action=edit&redlink=1,,,,
Qatar,Al Wabra Wildlife Preservation,https://en.wikipedia.org/wiki/Al_Wabra_Wildlife_Preservation,,,,
Qatar,Dahl Al Hammam Park,https://en.wikipedia.org/w/index.php?title=Dahl_Al_Hammam_Park&action=edit&redlink=1,,,,
Qatar,Khor Al Adaid Natural Reserve,https://en.wikipedia.org/w/index.php?title=Khor_Al_Adaid_Natural_Reserve&action=edit&redlink=1,,,,
Qatar,Khor Al Udeid Fish Sanctuary,https://en.wikipedia.org/w/index.php?title=Khor_Al_Udeid_Fish_Sanctuary&action=edit&redlink=1,,,,
Qatar,Mudhlem Cave,https://en.wikipedia.org/w/index.php?title=Mudhlem_Cave&action=edit&redlink=1,,,,
Qatar,Musfer Sinkhole,https://en.wikipedia.org/w/index.php?title=Musfer_Sinkhole&action=edit&redlink=1,,,,
Qatar,Ras Abrouq Nature Reserve,https://en.wikipedia.org/w/index.php?title=Ras_Abrouq_Nature_Reserve&action=edit&redlink=1,,,,
Qatar,Ras Ushairij Gazelle Conservation Park,https://en.wikipedia.org/w/index.php?title=Ras_Ushairij_Gazelle_Conservation_Park&action=edit&redlink=1,,,,
Qatar,Umm Tais National Park,https://en.wikipedia.org/wiki/Umm_Tais_National_Park,,,,
South Korea,Taebaeksan,https://en.wikipedia.org/w/index.php?title=Taebaeksan_National_Park&action=edit&redlink=1,,,,
Thailand,Mae Takhrai,https://en.wikipedia.org/w/index.php?title=Mae_Takhrai_National_Park&action=edit&redlink=1,,,,
Thailand,Mae Puem,https://en.wikipedia.org/w/index.php?title=Mae_Puem_National_Park&action=edit&redlink=1,,,,
Thailand,Doi Wiang Pha,https://en.wikipedia.org/w/index.php?title=Doi_Wiang_Pha_National_Park&action=edit&redlink=1,,,,
Thailand,Mae Tho,https://en.wikipedia.org/w/index.php?title=Mae_Tho_National_Park&action=edit&redlink=1,,,,
Thailand,Namtok Bua Thong-Nam Phu Chet Si,https://en.wikipedia.org/w/index.php?title=Namtok_Bua_Thong-Nam_Phu_Chet_Si&action=edit&redlink=1,,,,
Thailand,Lam Nam Kok,https://en.wikipedia.org/w/index.php?title=Lam_Nam_Kok_National_Park&action=edit&redlink=1,,,,
Thailand,Phu Chi Fa,https://en.wikipedia.org/w/index.php?title=Phu_Chi_Fa_National_Park&action=edit&redlink=1,,,,
Thailand,Tham Luang–Khun Nam Nang Non,https://en.wikipedia.org/w/index.php?title=Tham_Luang%E2%80%93Khun_Nam_Nang_Non_National_Park&action=edit&redlink=1,,,,
Thailand,Mae Ngao,https://en.wikipedia.org/w/index.php?title=Mae_Ngao_National_Park&action=edit&redlink=1,,,,
Thailand,Mae Sariang,https://en.wikipedia.org/w/index.php?title=Mae_Sariang_National_Park&action=edit&redlink=1,,,,
Thailand,Doi Chong,https://en.wikipedia.org/w/index.php?title=Doi_Chong_National_Park&action=edit&redlink=1,,,,
Thailand,Khun Sathan,https://en.wikipedia.org/w/index.php?title=Khun_Sathan_National_Park&action=edit&redlink=1,,,,
Thailand,Tham Sakoen,https://en.wikipedia.org/w/index.php?title=Tham_Sakoen_National_Park&action=edit&redlink=1,,,,
Thailand,Doi Pha Klong,https://en.wikipedia.org/w/index.php?title=Doi_Pha_Klong_National_Park&action=edit&redlink=1,,,,
Thailand,Mae Moei,https://en.wikipedia.org/w/index.php?title=Mae_Moei_National_Park&action=edit&redlink=1,,,,
Thailand,Khelang Banphot,https://en.wikipedia.org/w/index.php?title=Khelang_Banphot_National_Park&action=edit&redlink=1,,,,
Thailand,Tham Pha Thai,https://en.wikipedia.org/w/index.php?title=Tham_Pha_Thai_National_Park&action=edit&redlink=1,,,,
Thailand,Nanthaburi,https://en.wikipedia.org/w/index.php?title=Nanthaburi_National_Park&action=edit&redlink=1,,,,
Thailand,Doi Soi Malai,https://en.wikipedia.org/w/index.php?title=Doi_Soi_Malai_National_Park&action=edit&redlink=1,,,,
Thailand,Phu Laenkha,https://en.wikipedia.org/w/index.php?title=Phu_Laenkha_National_Park&action=edit&redlink=1,,,,
Thailand,Phu Suan Sai,https://en.wikipedia.org/w/index.php?title=Phu_Suan_Sai_National_Park&action=edit&redlink=1,,,,
Thailand,Phu Langka,https://en.wikipedia.org/w/index.php?title=Phu_Langka_National_Park&action=edit&redlink=1,,,,
Thailand,Phu Pha Lek,https://en.wikipedia.org/w/index.php?title=Phu_Pha_Lek_National_Park&action=edit&redlink=1,,,,
Thailand,Phu Hin Chom That–Phu Phra Bat,https://en.wikipedia.org/w/index.php?title=Phu_Hin_Chom_That%E2%80%93Phu_Phra_Bat_National_Park&action=edit&redlink=1,,,,
Thailand,Khao Sip Ha Chan,https://en.wikipedia.org/w/index.php?title=Khao_Sip_Ha_Chan_National_Park&action=edit&redlink=1,,,,
Thailand,Chaloem Phrakiat Thai Prachan,https://en.wikipedia.org/w/index.php?title=Chaloem_Phrakiat_Thai_Prachan_National_Park&action=edit&redlink=1,,,,
Thailand,Namtok Khlong Kaeo,https://en.wikipedia.org/w/index.php?title=Namtok_Khlong_Kaeo_National_Park&action=edit&redlink=1,,,,
Thailand,Khao Nan,https://en.wikipedia.org/w/index.php?title=Khao_Nan_National_Park&action=edit&redlink=1,,,,
Thailand,Namtok Si Khit,https://en.wikipedia.org/w/index.php?title=Namtok_Si_Khit_National_Park&action=edit&redlink=1,,,,
Thailand,Namtok Yong,https://en.wikipedia.org/w/index.php?title=Namtok_Yong_National_Park&action=edit&redlink=1,,,,
Thailand,Namtok Sai Khao,https://en.wikipedia.org/w/index.php?title=Namtok_Sai_Khao_National_Park&action=edit&redlink=1,,,,
Thailand,Namtok Ngao,https://en.wikipedia.org/w/index.php?title=Namtok_Ngao_National_Park&action=edit&redlink=1,,,,
Thailand,Bang Lang,https://en.wikipedia.org/w/index.php?title=Bang_Lang_National_Park&action=edit&redlink=1,,,,
Thailand,Ao Manao–Khao Tanyong,https://en.wikipedia.org/w/index.php?title=Ao_Manao%E2%80%93Khao_Tanyong_National_Park&action=edit&redlink=1,,,,
Thailand,Namtok Si Po,https://en.wikipedia.org/w/index.php?title=Namtok_Si_Po_National_Park&action=edit&redlink=1,,,,
Thailand,San Kala Khiri,https://en.wikipedia.org/w/index.php?title=San_Kala_Khiri_National_Park&action=edit&redlink=1,,,,
Thailand,Than Bok Khorania,https://en.wikipedia.org/w/index.php?title=Than_Bok_Khorani_National_Park&action=edit&redlink=1,,,,
Thailand,Lam Nam Kra Buria,https://en.wikipedia.org/w/index.php?title=Lam_Nam_Kra_Buri_National_Park&action=edit&redlink=1,,,,
Thailand,Mu Ko Ranonga,https://en.wikipedia.org/w/index.php?title=Mu_Ko_Ranong_National_Park&action=edit&redlink=1,,,,
Thailand,Mu Ko Ra–Ko Phra Thong,https://en.wikipedia.org/w/index.php?title=Mu_Ko_Ra%E2%80%93Ko_Phra_Thong_National_Park&action=edit&redlink=1,,,,
Turkey,Independence Path National Historic Park,https://en.wikipedia.org/w/index.php?title=Independence_Path_National_Historic_Park&action=edit&redlink=1,,,,
Turkey,Kuşcenneti National Park,https://en.wikipedia.org/wiki/Ku%C5%9Fcenneti_National_Park,,,,
Turkey,Battle of Manzikert National Historic Park,https://en.wikipedia.org/w/index.php?title=Battle_of_Manzikert_National_Historic_Park&action=edit&redlink=1,,,,
Turkey,Nene Hatun National Historic Park,https://en.wikipedia.org/w/index.php?title=Nene_Hatun_National_Historic_Park&action=edit&redlink=1,,,,
Turkey,Battle of Sakarya National Historic Park,https://en.wikipedia.org/wiki/Battle_of_Sakarya_National_Historic_Park,,,,
United Arab Emirates,Ain al Faydah National Park,https://en.wikipedia.org/w/index.php?title=Ain_al_Faydah_National_Park&action=edit&redlink=1,,,,
United Arab Emirates,Mushrif National Park,https://en.wikipedia.org/w/index.php?title=Mushrif_National_Park&action=edit&redlink=1,,,,
Vietnam,Du Già,https://en.wikipedia.org/w/index.php?title=Du_Gi%C3%A0&action=edit&redlink=1,,,,
Vietnam,Phia Oắc,https://en.wikipedia.org/w/index.php?title=Phia_O%E1%BA%AFc_-_Phia_%C4%90%C3%A9n&action=edit&redlink=1,,,,
Yemen,Bura Community Protected Area,https://en.wikipedia.org/w/index.php?title=Bura_Community_Protected_Area&action=edit&redlink=1,,,,
Yemen,Hawf National Reserve,https://en.wikipedia.org/w/index.php?title=Hawf_National_Reserve&action=edit&redlink=1,,,,
Yemen,Dhamar Montane Plains Mahjur Traditional Reserve,https://en.wikipedia.org/w/index.php?title=Dhamar_Montane_Plains_Mahjur_Traditional_Reserve&action=edit&redlink=1,,,,
Yemen,Jabal Bura Valley Forest National Park,https://en.wikipedia.org/w/index.php?title=Jabal_Bura_Valley_Forest_National_Park&action=edit&redlink=1,,,,
Yemen,Ras Isa Marine Park,https://en.wikipedia.org/w/index.php?title=Ras_Isa_Marine_Park&action=edit&redlink=1,,,,
Yemen,Socotra Island Protected Area,https://en.wikipedia.org/w/index.php?title=Socotra_Island_Protected_Area&action=edit&redlink=1,,,,
Yemen,Zuqur Islands Marine National Park,https://en.wikipedia.org/w/index.php?title=Zuqur_Islands_Marine_National_Park&action=edit&redlink=1,,,,
Albania,Alps of Albania National Park,https://en.wikipedia.org/w/index.php?title=Alps_of_Albania_National_Park&action=edit&redlink=1,,,,
Belgium,L'Entre-Sambre-et-Meuse National Park,https://en.wikipedia.org/w/index.php?title=L%27Entre-Sambre-et-Meuse_National_Park&action=edit&redlink=1,,,,
Belgium,Vallée de la Semois National Park,https://en.wikipedia.org/w/index.php?title=Vall%C3%A9e_de_la_Semois_National_Park&action=edit&redlink=1,,,,
Belgium,Brabantse Wouden National Park,https://en.wikipedia.org/w/index.php?title=Brabantse_Wouden_National_Park&action=edit&redlink=1,,,,
Belgium,Scheldevallei National Park,https://en.wikipedia.org/w/index.php?title=Scheldevallei_National_Park&action=edit&redlink=1,,,,
Belgium,Bosland National Park,https://en.wikipedia.org/w/index.php?title=Bosland_National_Park&action=edit&redlink=1,,,,
Czech Republic,Krkonoše,https://en.wikipedia.org/wiki/Krkono%C5%A1e_National_Park,,,,
Czech Republic,Šumava,https://en.wikipedia.org/wiki/%C5%A0umava_National_Park,,,,
Denmark,Land of the Scylding National Park,https://en.wikipedia.org/w/index.php?title=Land_of_the_Scylding_National_Park&action=edit&redlink=1,,,,
Germany,Hunsrück-Hochwald National Park,https://en.wikipedia.org/wiki/Hunsr%C3%BCck-Hochwald_National_Park,,,,
Ireland,Boyne Valley,https://en.wikipedia.org/w/index.php?title=Boyne_Valley_(Br%C3%BA_na_B%C3%B3inne)_National_Park&action=edit&redlink=1,,,,
North Macedonia,Galičica National Park,https://en.wikipedia.org/w/index.php?title=Gali%C4%8Dica_National_Park&action=edit&redlink=1,,,,
North Macedonia,Šar Mountains National Park,https://en.wikipedia.org/w/index.php?title=%C5%A0ar_Mountains_National_Park_(North_Macedonia)&action=edit&redlink=1,,,,
Norway,Muvrrešáhpi,https://en.wikipedia.org/w/index.php?title=Muvrre%C5%A1%C3%A1hpi&action=edit&redlink=1,,,,
Ukraine,Pushcha Radzivila,https://en.wikipedia.org/w/index.php?title=Pushcha_Radzivila_National_Nature_Park&action=edit&redlink=1,,,,
Bahamas,Hope Great House,https://en.wikipedia.org/w/index.php?title=Hope_Great_House&action=edit&redlink=1,,,,
Bahamas,Marine Farm,https://en.wikipedia.org/w/index.php?title=Marine_Farm&action=edit&redlink=1,,,,
Bahamas,Leon Levy Native Plant Preserve,https://en.wikipedia.orghttp://www.levypreserve.org,,,,
Bahamas,Peterson Cay National Park,https://en.wikipedia.org/w/index.php?title=Peterson_Cay_National_Park&action=edit&redlink=1,,,,
Bahamas,Harrold and Wilson Ponds National Park,https://en.wikipedia.org/w/index.php?title=Harrold_and_Wilson_Ponds_National_Park&action=edit&redlink=1,,,,
Bahamas,The Retreat,"https://en.wikipedia.org/w/index.php?title=The_Retreat,_Bahamas&action=edit&redlink=1",,,,
Bahamas,Bahamas National Trust,https://en.wikipedia.orghttp://www.bnt.bs/,,,,
Bahamas,VIAF,https://en.wikipedia.orghttps://viaf.org/viaf/132809944,,,,
Bahamas,United States,https://en.wikipedia.orghttps://id.loc.gov/authorities/no92011782,,,,
Belize,Río Blanco,https://en.wikipedia.org/w/index.php?title=Rio_Blanco_(Belize)&action=edit&redlink=1,,,,
Dominican Republic,urban parks and recreational areas.,https://en.wikipedia.org/wiki/Urban_park,,,,
Dominican Republic,nature reserves,https://en.wikipedia.org/wiki/Nature_reserves,,,,
Dominican Republic,zoological & botanical gardens,https://en.wikipedia.org/wiki/Botanical_garden,,,,
El Salvador,San Diego and San Felipe Las Barras National Park,https://en.wikipedia.org/w/index.php?title=San_Diego_and_San_Felipe_Las_Barras_National_Park&action=edit&redlink=1,,,,
Guatemala,Cerro El Reformador,https://en.wikipedia.org/wiki/Cerro_El_Reformador,,,,
Guatemala,Mirador Río Azul,https://en.wikipedia.org/w/index.php?title=Mirador_R%C3%ADo_Azul&action=edit&redlink=1,,,,
Haiti,Martissant Urban National Park,,,,,
Haiti,Pélerin National Park,,,,,
Haiti,Canapé-Vert National Park,,,,,
Haiti,Lagon des Huîtres National Park,,,,,
Haiti,Sant d'Eau National Park,,,,,
Haiti,Forêt des Pins 1 National Park,https://en.wikipedia.org#cite_note-ReferenceA-8,,,,
Haiti,Forêt des Pins 2 National Park,,,,,
Haiti,Île-à-Vache National Park,https://en.wikipedia.org#cite_note-10,,,,
Haiti,Les Matheux National History Park,https://en.wikipedia.org#cite_note-LM10-8-4,,,,
Haiti,Zone Reservée Péligre National Park,,,,,
Honduras,Congolón,"https://en.wikipedia.org/w/index.php?title=Congol%C3%B3n,_Piedra_Parada_and_Coyocutena_National_Park&action=edit&redlink=1",,,,
Honduras,Montaña de Botaderos Carlos Escaleras Mejía National Park,https://en.wikipedia.org/w/index.php?title=Monta%C3%B1a_de_Botaderos_Carlos_Escaleras_Mej%C3%ADa_National_Park&action=edit&redlink=1,,,,
Honduras,Nombre de Dios National Park,https://en.wikipedia.org/w/index.php?title=Nombre_de_Dios_National_Park&action=edit&redlink=1,,,,
Honduras,Omoa National Park,https://en.wikipedia.org/w/index.php?title=Omoa_National_Park&action=edit&redlink=1,,,,
Honduras,Rio Kruta National Park,https://en.wikipedia.org/w/index.php?title=Rio_Kruta_National_Park&action=edit&redlink=1,,,,
Mexico,Arrecife de Puerto Morelos National Park,https://en.wikipedia.org/w/index.php?title=Arrecife_de_Puerto_Morelos_National_Park&action=edit&redlink=1,,,,
Mexico,Arrecifes de Xcalak National Park,https://en.wikipedia.org/w/index.php?title=Arrecifes_de_Xcalak_National_Park&action=edit&redlink=1,,,,
Mexico,Costa Occidental de Isla Mujeres National Park,https://en.wikipedia.org/w/index.php?title=Costa_Occidental_de_Isla_Mujeres_National_Park&action=edit&redlink=1,,,,
Mexico,Desierto del Carmen National Park,https://en.wikipedia.org/w/index.php?title=Desierto_del_Carmen_National_Park&action=edit&redlink=1,,,,
Mexico,El Sabinal National Park,https://en.wikipedia.org/w/index.php?title=El_Sabinal_National_Park&action=edit&redlink=1,,,,
Mexico,Lomas de Padierna National Park,https://en.wikipedia.org/w/index.php?title=Lomas_de_Padierna_National_Park&action=edit&redlink=1,,,,
Mexico,Los Novillos National Park,https://en.wikipedia.org/w/index.php?title=Los_Novillos_National_Park&action=edit&redlink=1,,,,
Mexico,Rayón National Park,https://en.wikipedia.org/w/index.php?title=Ray%C3%B3n_National_Park&action=edit&redlink=1,,,,
Mexico,Sistema Arrecifal Veracruzano National Marine Park,https://en.wikipedia.org/wiki/Sistema_Arrecifal_Veracruzano_National_Marine_Park,,,,
Mexico,Xicoténcatl National Park,https://en.wikipedia.org/w/index.php?title=Xicot%C3%A9ncatl_National_Park&action=edit&redlink=1,,,,
Panama,Altos de Campana National Park,https://en.wikipedia.org/w/index.php?title=Altos_de_Campana_National_Park&action=edit&redlink=1,,,,
Panama,Las Cruces Trail National Park,https://en.wikipedia.org/w/index.php?title=Las_Cruces_Trail_National_Park&action=edit&redlink=1,,,,
Panama,Portobelo National Park,https://en.wikipedia.org/w/index.php?title=Portobelo_National_Park&action=edit&redlink=1,,,,
Bolivia,Serranías de Ig'embe,https://en.wikipedia.org/wiki/Serran%C3%ADas_de_Ig%27embe_Integrated_Management_Natural_Area,,,,
Colombia,PNN Cordillera de los Picachos,https://en.wikipedia.org/w/index.php?title=Los_Picachos_National_Natural_Park&action=edit&redlink=1,,,,
Colombia,PNN Pisba,https://en.wikipedia.org/w/index.php?title=Pisba_National_Natural_Park&action=edit&redlink=1,,,,
Colombia,PNN Sanquianga,https://en.wikipedia.org/w/index.php?title=Sanquianga_National_Natural_Park&action=edit&redlink=1,,,,
Colombia,SFF Los Colorados,https://en.wikipedia.org/w/index.php?title=Los_Colorados_Flora_and_Fauna_Sanctuary&action=edit&redlink=1,,,,
Colombia,PNN La Paya,https://en.wikipedia.org/w/index.php?title=La_Paya_National_Natural_Park&action=edit&redlink=1,,,,
Colombia,PNN Cahuinarí,https://en.wikipedia.org/w/index.php?title=Cahuinar%C3%AD_National_Natural_Park&action=edit&redlink=1,,,,
Colombia,RNN Nukak,https://en.wikipedia.org/w/index.php?title=Nukak_Natural_Reserve&action=edit&redlink=1,,,,
Colombia,PNN Tinigua,https://en.wikipedia.org/w/index.php?title=Tinigua_National_Natural_Park&action=edit&redlink=1,,,,
Colombia,PNN Catatumbo Barí,https://en.wikipedia.org/w/index.php?title=Catatumbo_Bar%C3%AD_National_Natural_Park&action=edit&redlink=1,,,,
Colombia,SFF Guanentá Alto Río Fonce,https://en.wikipedia.org/w/index.php?title=Guanent%C3%A1_Alto_R%C3%ADo_Fonce_Flora_and_Fauna_Sanctuary&action=edit&redlink=1,,,,
Colombia,SFF Otún Quimbaya,https://en.wikipedia.org/w/index.php?title=Ot%C3%BAn_Quimbaya_Flora_and_Fauna_Sanctuary&action=edit&redlink=1,,,,
Colombia,PNN Río Puré,https://en.wikipedia.org/w/index.php?title=R%C3%ADo_Pur%C3%A9_National_Natural_Park&action=edit&redlink=1,,,,
Colombia,PNN Alto Fragua Indi-Wasi,https://en.wikipedia.org/w/index.php?title=Alto_Fragua_Indi-Wasi_National_Natural_Park&action=edit&redlink=1,,,,
Colombia,PNN Selva de Florencia,https://en.wikipedia.org/w/index.php?title=Selva_de_Florencia_National_Natural_Park&action=edit&redlink=1,,,,
Colombia,PNN Yaigojé Apaporis,https://en.wikipedia.org/w/index.php?title=Yaigoj%C3%A9_Apaporis_National_Natural_Park&action=edit&redlink=1,,,,
Colombia,SFF Playona Acandí,https://en.wikipedia.org/wiki/Playona_Acand%C3%AD_Fauna_and_Flora_Sanctuary,,,,
Colombia,PNN Corales de Profundidad,https://en.wikipedia.org/w/index.php?title=Corales_de_Profundidad_National_Natural_Park&action=edit&redlink=1,,,,
Paraguay,Bella Vista National Park,https://en.wikipedia.org/w/index.php?title=Bella_Vista_National_Park&action=edit&redlink=1,,,,
Paraguay,Caaguazú National Park,https://en.wikipedia.org/w/index.php?title=Caaguaz%C3%BA_National_Park&action=edit&redlink=1,,,,
Paraguay,Defensores del Chaco National Park,https://en.wikipedia.org/w/index.php?title=Defensores_del_Chaco_National_Park&action=edit&redlink=1,,,,
Paraguay,Medanos del Chaco National Park,https://en.wikipedia.org/w/index.php?title=Medanos_del_Chaco_National_Park&action=edit&redlink=1,,,,
Paraguay,Paso Bravo National Park,https://en.wikipedia.org/w/index.php?title=Paso_Bravo_National_Park&action=edit&redlink=1,,,,
Paraguay,Rio Negro National Park,https://en.wikipedia.org/w/index.php?title=Rio_Negro_National_Park&action=edit&redlink=1,,,,
Paraguay,Saltos del Guairá National Park,https://en.wikipedia.org/w/index.php?title=Saltos_del_Guair%C3%A1_National_Park&action=edit&redlink=1,,,,
Paraguay,Serrania San Luis National Park,https://en.wikipedia.org/w/index.php?title=Serrania_San_Luis_National_Park&action=edit&redlink=1,,,,
Paraguay,Teniente Agripino Enciso National Park,https://en.wikipedia.org/w/index.php?title=Teniente_Agripino_Enciso_National_Park&action=edit&redlink=1,,,,
Paraguay,Tifunqué National Park,https://en.wikipedia.org/w/index.php?title=Tifunqu%C3%A9_National_Park&action=edit&redlink=1,,,,
Paraguay,Ybycuí National Park,https://en.wikipedia.org/w/index.php?title=Ybycu%C3%AD_National_Park&action=edit&redlink=1,,,,
Peru,Chayu Nain,https://en.wikipedia.org/w/index.php?title=Chayu_Nain_Communal_Reserve&action=edit&redlink=1,,,,
Uruguay,Lagoons on Uruguay's east coast. Classified as a wetland of international significance under the Ramsar Convention.,https://en.wikipedia.org/wiki/Wetland,,,,
Uruguay,Castillos Lagoon. Freshwater lagoon,,,,,
Venezuela,Duida-Marahuaca,https://en.wikipedia.org/wiki/Duida-Marahuaca_National_Park,,,,
Samoa,Lata National Park,https://en.wikipedia.org/w/index.php?title=Lata_National_Park&action=edit&redlink=1,,,,
Samoa,Masamasa-Falelima National Park / Cornwall National Park,https://en.wikipedia.org/w/index.php?title=Masamasa-Falelima_National_Park&action=edit&redlink=1,,,,
Samoa,Mauga o Salafai National Park,https://en.wikipedia.org/w/index.php?title=Mauga_o_Salafai_National_Park&action=edit&redlink=1,,,,
Tonga,National parks of Tonga,https://en.wikipedia.org/wiki/Category:National_parks_of_Tonga,,,,
Tonga,Geography of Tonga,https://en.wikipedia.org/wiki/Category:Geography_of_Tonga,,,,
